*******************************************************************************
JPL/HORIZONS               680 Genoveva (A909 HF)          2020-Jun-22 09:24:53
Rec #:     680 (+COV) Soln.date: 2020-May-20_01:10:37   # obs: 2678 (1909-2020)
 
IAU76/J2000 helio. ecliptic osc. elements (au, days, deg., period=Julian yrs):
 
  EPOCH=  2456303.5 ! 2013-Jan-11.00 (TDB)         Residual RMS= .30755
   EC= .2890253113711829   QR= 2.245514141113385   TP= 2455419.7716202834
   OM= 38.47784577508665   W=  244.8842365010485   IN= 17.52159518120848
   A= 3.158360173755376    MA= 155.1780870731861   ADIST= 4.071206206397367
   PER= 5.61307            N= .175594771           ANGMOM= .029266451
   DAN= 3.29927            DDN= 2.57824            L= 282.3001763
   B= -15.8190501          MOID= 1.29077005        TP= 2010-Aug-11.2716202834
 
Asteroid physical parameters (km, seconds, rotational period in hours):
   GM= n.a.                RAD= 41.96              ROTPER= 11.089
   H= 9.5                  G= .150                 B-V= .689
                           ALBEDO= .0474           STYP= XC
 
ASTEROID comments: 
1: soln ref.= JPL#42, OCC=0
2: source=ORB
*******************************************************************************
 
 
*******************************************************************************
Ephemeris / WWW_USER Mon Jun 22 09:24:53 2020 Pasadena, USA      / Horizons
*******************************************************************************
Target body name: 680 Genoveva (A909 HF)          {source: JPL#42}
Center body name: Solar System Barycenter (0)     {source: DE431}
Center-site name: BODY CENTER
*******************************************************************************
Start time      : A.D. 1969-Jun-28 00:00:00.0000 TDB
Stop  time      : A.D. 2071-May-04 00:00:00.0000 TDB
Step-size       : 7200 minutes
*******************************************************************************
Center geodetic : 0.00000000,0.00000000,0.0000000 {E-lon(deg),Lat(deg),Alt(km)}
Center cylindric: 0.00000000,0.00000000,0.0000000 {E-lon(deg),Dxy(km),Dz(km)}
Center radii    : (undefined)                                                  
Small perturbers: Yes                             {source: SB431-N16}
Output units    : AU-D
Output type     : GEOMETRIC cartesian states
Output format   : 2 (position and velocity)
Reference frame : Ecliptic of J2000.0
*******************************************************************************
Initial IAU76/J2000 heliocentric ecliptic osculating elements (au, days, deg.):
  EPOCH=  2456303.5 ! 2013-Jan-11.00 (TDB)         Residual RMS= .30755        
   EC= .2890253113711829   QR= 2.245514141113385   TP= 2455419.7716202834      
   OM= 38.47784577508665   W=  244.8842365010485   IN= 17.52159518120848       
  Equivalent ICRF heliocentric equatorial cartesian coordinates (au, au/d):
   X= 1.639299335601017E-01  Y= 3.212827753578746E+00  Z= 2.410162515865466E+00
  VX=-7.116011320679327E-03 VY=-4.032749749774368E-06 VZ= 1.703377761997917E-03
Asteroid physical parameters (km, seconds, rotational period in hours):        
   GM= n.a.                RAD= 41.96              ROTPER= 11.089              
   H= 9.5                  G= .150                 B-V= .689                   
                           ALBEDO= .0474           STYP= XC                    
*******************************************************************************
            JDTDB,            Calendar Date (TDB),        delta-T,                      X,                      Y,                      Z,                     VX,                     VY,                     VZ,
******************************************************************************************************************************************************************************************************************
$$SOE
2445300.500000000, A.D. 1982-Nov-27 00:00:00.0000,      53.182995,  1.864904751438761E+00, -1.299168806179459E+00, -7.085663720284487E-01,  8.842964149780671E-03,  8.725833691064255E-03,  2.785372195210527E-04,
2445305.500000000, A.D. 1982-Dec-02 00:00:00.0000,      53.183114,  1.908607692645263E+00, -1.255186684699899E+00, -7.069803099579396E-01,  8.637862078068392E-03,  8.865912534400810E-03,  3.556915822868970E-04,
2445310.500000000, A.D. 1982-Dec-07 00:00:00.0000,      53.183240,  1.951280083534175E+00, -1.210520674453858E+00, -7.050114538885550E-01,  8.430786567807285E-03,  8.999395579652261E-03,  4.316474739706951E-04,
2445315.500000000, A.D. 1982-Dec-12 00:00:00.0000,      53.183373,  1.992912689282475E+00, -1.165203649566681E+00, -7.026659029053838E-01,  8.221989389938280E-03,  9.126326574655215E-03,  5.063628891843780E-04,
2445320.500000000, A.D. 1982-Dec-17 00:00:00.0000,      53.183512,  2.033497515892430E+00, -1.119268239029265E+00, -6.999499558992002E-01,  8.011715030901426E-03,  9.246759698877520E-03,  5.797998953330223E-04,
2445325.500000000, A.D. 1982-Dec-22 00:00:00.0000,      53.183655,  2.073027772735002E+00, -1.072746776438394E+00, -6.968700914503442E-01,  7.800200290292306E-03,  9.360758803947199E-03,  6.519245311044255E-04,
2445330.500000000, A.D. 1982-Dec-27 00:00:00.0000,      53.183798,  2.111497833248553E+00, -1.025671253530635E+00, -6.934329482539809E-01,  7.587673944847408E-03,  9.468396656667204E-03,  7.227066917740221E-04,
2445335.500000000, A.D. 1983-Jan-01 00:00:00.0000,      53.183942,  2.148903194117247E+00, -9.780732774833106E-01, -6.896453061476515E-01,  7.374356475853099E-03,  9.569754190031615E-03,  7.921200032873883E-04,
2445340.500000000, A.D. 1983-Jan-06 00:00:00.0000,      53.184088,  2.185240433239024E+00, -9.299840319304300E-01, -6.855140677928923E-01,  7.160459857064266E-03,  9.664919766915478E-03,  8.601416868157586E-04,
2445345.500000000, A.D. 1983-Jan-11 00:00:00.0000,      53.184234,  2.220507166777667E+00, -8.814342416206699E-01, -6.810462410545872E-01,  6.946187399805057E-03,  9.753988460118599E-03,  9.267524153835595E-04,
2445350.500000000, A.D. 1983-Jan-16 00:00:00.0000,      53.184379,  2.254702005574784E+00, -8.324541406274183E-01, -6.762489221132899E-01,  6.731733651067471E-03,  9.837061352062375E-03,  9.919361643779018E-04,
2445355.500000000, A.D. 1983-Jan-21 00:00:00.0000,      53.184520,  2.287824511175105E+00, -7.830734440037735E-01, -6.711292793362397E-01,  6.517284339993303E-03,  9.914244857724295E-03,  1.055680057863482E-03,
2445360.500000000, A.D. 1983-Jan-26 00:00:00.0000,      53.184656,  2.319875151696696E+00, -7.333213227575958E-01, -6.656945379240411E-01,  6.303016368798557E-03,  9.985650074160569E-03,  1.117974212191470E-03,
2445365.500000000, A.D. 1983-Jan-31 00:00:00.0000,      53.184786,  2.350855257760369E+00, -6.832263820076835E-01, -6.599519653441199E-01,  6.089097845022511E-03,  1.005139215878190E-02,  1.178811577805842E-03,
2445370.500000000, A.D. 1983-Feb-05 00:00:00.0000,      53.184911,  2.380766978677003E+00, -6.328166421743043E-01, -6.539088575580330E-01,  5.875688151852874E-03,  1.011158973746605E-02,  1.238187780040864E-03,
2445375.500000000, A.D. 1983-Feb-10 00:00:00.0000,      53.185030,  2.409613239073963E+00, -5.821195230531657E-01, -6.475725260453369E-01,  5.662938052797344E-03,  1.016636434316194E-02,  1.296100959872601E-03,
2445380.500000000, A.D. 1983-Feb-15 00:00:00.0000,      53.185142,  2.437397696122574E+00, -5.311618306191029E-01, -6.409502856216172E-01,  5.450989826778357E-03,  1.021583988546628E-02,  1.352551615679715E-03,
2445385.500000000, A.D. 1983-Feb-20 00:00:00.0000,      53.185245,  2.464124697509057E+00, -4.799697464037353E-01, -6.340494430430392E-01,  5.239977429788964E-03,  1.026014215150206E-02,  1.407542447036706E-03,
2445390.500000000, A.D. 1983-Feb-25 00:00:00.0000,      53.185336,  2.489799240272435E+00, -4.285688192900912E-01, -6.268772863849255E-01,  5.030026679439656E-03,  1.029939833826377E-02,  1.461078201450200E-03,
2445395.500000000, A.D. 1983-Mar-02 00:00:00.0000,      53.185417,  2.514426930615260E+00, -3.769839595668670E-01, -6.194410751776835E-01,  4.821255458989161E-03,  1.033373661639514E-02,  1.513165524793469E-03,
2445400.500000000, A.D. 1983-Mar-07 00:00:00.0000,      53.185487,  2.538013944776622E+00, -3.252394350857206E-01, -6.117480312800498E-01,  4.613773937737304E-03,  1.036328572513213E-02,  1.563812816033156E-03,
2445405.500000000, A.D. 1983-Mar-12 00:00:00.0000,      53.185548,  2.560566991042054E+00, -2.733588693669575E-01, -6.038053304669994E-01,  4.407684804929677E-03,  1.038817459789617E-02,  1.613030086700496E-03,
2445410.500000000, A.D. 1983-Mar-17 00:00:00.0000,      53.185598,  2.582093272951239E+00, -2.213652415021612E-01, -5.956200947077090E-01,  4.203083514556282E-03,  1.040853201777731E-02,  1.660828825448344E-03,
2445415.500000000, A.D. 1983-Mar-22 00:00:00.0000,      53.185636,  2.602600453751790E+00, -1.692808877066801E-01, -5.871993851074453E-01,  4.000058538579425E-03,  1.042448630193099E-02,  1.707221867967599E-03,
2445420.500000000, A.D. 1983-Mar-27 00:00:00.0000,      53.185659,  2.622096622135224E+00, -1.171275043801139E-01, -5.785501954859411E-01,  3.798691626183323E-03,  1.043616501380247E-02,  1.752223272516369E-03,
2445425.500000000, A.D. 1983-Apr-01 00:00:00.0000,      53.185670,  2.640590259279410E+00, -6.492615253818718E-02, -5.696794465636039E-01,  3.599058066763475E-03,  1.044369470220565E-02,  1.795848201289092E-03,
2445430.500000000, A.D. 1983-Apr-06 00:00:00.0000,      53.185669,  2.658090207211585E+00, -1.269726348377772E-02, -5.605939807261061E-01,  3.401226954961283E-03,  1.044720066643450E-02,  1.838112807677204E-03,
2445435.500000000, A.D. 1983-Apr-11 00:00:00.0000,      53.185657,  2.674605638499768E+00,  3.953935441033457E-02, -5.513005573383789E-01,  3.205261456874229E-03,  1.044680674619255E-02,  1.879034129199414E-03,
